STARLINK-37220          
1 68398U 26063U   26092.75002314 -.02283890  15546-2 -43589-2 0  9990
2 68398  97.2815 233.5577 0002091  66.0397 120.4043 16.00790582  2322
STARLINK-37187          
1 68399U 26063V   26092.75002314 -.01834573  10161-2 -35747-2 0  9995
2 68399  97.2813 233.5566 0001626  66.9644 117.1108 16.00392506  2325
STARLINK-36235          
1 68400U 26063W   26092.75002314 -.01856481  10425-2 -35611-2 0  9993
2 68400  97.2810 233.5586 0001536  80.5141 108.5827 16.00671292  2325
STARLINK-37175          
1 68401U 26063X   26092.75002314 -.01858405  10462-2 -35380-2 0  9996
2 68401  97.2812 233.5601 0001605  70.4024 121.2648 16.00803270  2327
STARLINK-36360          
1 68402U 26063Y   26092.75002314 -.01885974  10776-2 -35609-2 0  9990
2 68402  97.2811 233.5611 0001494  76.7215 117.4227 16.00951512  2328
STARLINK-37218          
1 68403U 26063Z   26092.75002314 -.01865503  10587-2 -34726-2 0  9996
2 68403  97.2814 233.5637 0001616  71.1878 127.3880 16.01196804  2321
STARLINK-37188          
1 68404U 26063AA  26092.75002314 -.01863513  10549-2 -34952-2 0  9995
2 68404  97.2811 233.5623 0001600  68.4936 127.6824 16.01065014  2320
SHIYAN-33               
1 68405U 26064A   26092.72175684  .00007499  00000+0  31927-3 0  9993
2 68405  97.4658 168.6373 0013547 205.6558 154.4008 15.23194759  1008
LPNTSAT-001 (IOD-1)     
1 68408U 26065A   26091.17010600  .00004750  00000+0  23469-3 0  9990
2 68408  97.4137 333.2788 0015408 273.4606  86.4866 15.18233471   574
LPNTSAT-002 (IOD-2)     
1 68409U 26065B   26089.91793646  .00001661  00000+0  84452-4 0  9996
2 68409  97.4122 332.0512 0012511 274.1697  85.8107 15.18186279   362
ELECTRON R/B            
1 68410U 26065C   26088.74355105  .00479178  22642-5  25022-3 0  9993
2 68410  97.3942 331.0573 0228083 205.9229 153.0475 15.83047135   157
ELECTRON KICK STAGE R/B 
1 68411U 26065D   26089.70480097  .00204615  21541-5  32519-3 0  9998
2 68411  97.4169 332.0388 0204510  25.2779 335.8323 15.75328689   370
